ONEWEB-0102             
1 47258U 20100A   23059.51093696 -.00000152  00000+0 -45806-3 0  9992
2 47258  87.8979 229.9723 0001522 110.3192 249.8100 13.12442640106713
ONEWEB-0102             
1 47258U 20100A   23059.89212244 -.00000187  00000+0 -55416-3 0  9991
2 47258  87.8980 229.8968 0001554 110.6335 249.4960 13.12442450106766
ONEWEB-0102             
1 47258U 20100A   23059.96835967 -.00000266  00000+0 -77585-3 0  9991
2 47258  87.8980 229.8817 0001550 110.7390 249.3905 13.12442508106770
ONEWEB-0102             
1 47258U 20100A   23060.88320540 -.00000394  00000+0 -11293-2 0  9995
2 47258  87.8980 229.7002 0001547 111.0310 249.0984 13.12441766106899
ONEWEB-0102             
1 47258U 20100A   23061.72181163 -.00002344  00000+0 -65518-2 0  9991
2 47258  87.8984 229.5335 0001661 107.4103 252.7207 13.12450737107007
ONEWEB-0102             
1 47258U 20100A   23062.48418627 -.00000434  00000+0 -12428-2 0  9993
2 47258  87.8982 229.3823 0001546 111.3220 248.8073 13.12441713107103
ONEWEB-0102             
1 47258U 20100A   23062.86537307 -.00000262  00000+0 -76408-3 0  9990
2 47258  87.8985 229.3070 0001755 112.1061 248.0254 13.12440801107159
